NORAD_CAT_ID,OBJECT_NAME,OBJECT_TYPE,EPOCH,MEAN_MOTION,ECCENTRICITY,INCLINATION,RA_OF_ASC_NODE,ARG_OF_PERICENTER,MEAN_ANOMALY,BSTAR,MEAN_MOTION_DOT,MEAN_MOTION_DDOT,TLE_LINE0,TLE_LINE1,TLE_LINE2,SEMIMAJOR_AXIS,PERIOD,APOGEE,PERIGEE,DECAYED
49747.0,STARLINK-3247,PAYLOAD,2022-02-05 22:00:01,15.27765781,0.0001371,53.2173,11.4589,73.314,196.6305,-0.025772,-0.00657713,0.0,0 STARLINK-3247,1 49747U 21115Z   22036.91668981 -.00657713  00000-0 -25772-1 0  9997,2 49747  53.2173  11.4589 0001371  73.3140 196.6305 15.27765781 11272,6860.63,94.255,483.435,481.554,0.0
49747.0,STARLINK-3247,PAYLOAD,2022-02-06 14:00:01,15.2683437,0.0001196,53.2173,8.3743,80.2487,257.2428,-0.026692,-0.00661738,0.0,0 STARLINK-3247,1 49747U 21115Z   22037.58335648 -.00661738  00000-0 -26692-1 0  9996,2 49747  53.2173   8.3743 0001196  80.2487 257.2428 15.26834370  3636,6863.42,94.313,486.106,484.464,0.0
49747.0,STARLINK-3247,PAYLOAD,2022-02-06 22:00:00,15.26365132,0.0001264,53.2174,6.8323,69.5867,300.7753,-0.026829,-0.0065613,0.0,0 STARLINK-3247,1 49747U 21115Z   22037.91667824 -.00656130  00000-0 -26829-1 0  9999,2 49747  53.2174   6.8323 0001264  69.5867 300.7753 15.26365132  3632,6864.826,94.342,487.559,485.824,0.0
49747.0,STARLINK-3247,PAYLOAD,2022-02-07 06:00:00,15.25901643,0.000134,53.2174,5.2941,61.3819,341.3505,-0.027482,-0.00662249,0.0,0 STARLINK-3247,1 49747U 21115Z   22038.25001157 -.00662249  00000-0 -27482-1 0  9992,2 49747  53.2174   5.2941 0001340  61.3819 341.3505 15.25901643 11472,6866.215999999999,94.37,489.001,487.161,0.0
49747.0,STARLINK-3247,PAYLOAD,2022-02-07 14:00:01,15.25433684,0.0001217,53.2174,3.754,71.6857,2.8596,-0.027757,-0.00659649,0.0,0 STARLINK-3247,1 49747U 21115Z   22038.58334491 -.00659649  00000-0 -27757-1 0  9993,2 49747  53.2174   3.7540 0001217  71.6857   2.8596 15.25433684  3643,6867.62,94.399,490.321,488.65,0.0
49747.0,STARLINK-3247,PAYLOAD,2022-02-07 22:00:00,15.24966211,0.0001402,53.2174,2.2152,61.0536,44.7435,-0.028054,-0.00657545,0.0,0 STARLINK-3247,1 49747U 21115Z   22038.91667824 -.00657545  00000-0 -28054-1 0  9993,2 49747  53.2174   2.2152 0001402  61.0536  44.7435 15.24966211  3653,6869.024,94.428,491.852,489.926,0.0
49747.0,STARLINK-3247,PAYLOAD,2022-02-08 14:00:01,15.23916014,0.0001535,53.2172,359.15,50.3758,116.2979,-0.02151,-0.00492918,0.0,0 STARLINK-3247,1 49747U 21115Z   22039.58334491 -.00492918  00000-0 -21510-1 0  9999,2 49747  53.2172 359.1500 0001535  50.3758 116.2979 15.23916014 11670,6872.179,94.493,495.099,492.989,0.0
49747.0,STARLINK-3247,PAYLOAD,2022-02-08 22:00:01,15.23566978,0.0001535,53.2175,357.6082,61.2307,135.0189,-0.029289,-0.00658212,0.0,0 STARLINK-3247,1 49747U 21115Z   22039.91668981 -.00658212  00000-0 -29289-1 0  9992,2 49747  53.2175 357.6082 0001535  61.2307 135.0189 15.23566978 11720,6873.229,94.515,496.149,494.039,0.0
49747.0,STARLINK-3247,PAYLOAD,2022-02-09 14:00:01,15.2263545,0.0001386999999999,53.2174,354.5425,70.0434,183.5987,-0.030277,-0.00661505,0.0,0 STARLINK-3247,1 49747U 21115Z   22040.58334491 -.00661505  00000-0 -30277-1 0  9991,2 49747  53.2174 354.5425 0001387  70.0434 183.5987 15.22635450  3669,6876.031999999997,94.573,498.851,496.943,0.0
49747.0,STARLINK-3247,PAYLOAD,2022-02-10 06:00:00,15.21699795,0.0001409999999999,53.2174,351.4824,64.2733,244.5827,-0.030902,-0.00657027,0.0,0 STARLINK-3247,1 49747U 21115Z   22041.25001157 -.00657027  00000-0 -30902-1 0  9995,2 49747  53.2174 351.4824 0001410  64.2733 244.5827 15.21699795 11933,6878.85,94.631,501.685,499.745,0.0
49747.0,STARLINK-3247,PAYLOAD,2022-02-10 12:32:22,15.22639302,0.0003057,53.2202,350.2929,21.8098,338.30300000000005,-0.00862,-0.00198092,0.0,0 STARLINK-3247,1 49747U 21115Z   22041.52248706 -.00198092  00000-0 -86200-2 0  9993,2 49747  53.2202 350.2929 0003057  21.8098 338.3030 15.22639302 10868,6876.02,94.573,499.987,495.783,0.0
49747.0,STARLINK-3247,PAYLOAD,2022-02-10 20:25:31,15.22114529,0.0004099,53.2217,348.7823,344.9369,15.1506,-0.0089687999999999,-0.00202826,0.0,0 STARLINK-3247,1 49747U 21115Z   22041.85106286 -.00202826  00000-0 -89688-2 0  9999,2 49747  53.2217 348.7823 0004099 344.9369  15.1506 15.22114529 10919,6877.601,94.605,502.285,496.647,0.0
49747.0,STARLINK-3247,PAYLOAD,2022-02-11 04:18:56,15.21474747,0.0002753,53.2197,347.2853,24.6102,335.5027,-0.0094016,-0.00208431,0.0,0 STARLINK-3247,1 49747U 21115Z   22042.17982110 -.00208431  00000-0 -94016-2 0  9992,2 49747  53.2197 347.2853 0002753  24.6102 335.5027 15.21474747 12071,6879.529,94.645,503.287,499.5,0.0
49747.0,STARLINK-3247,PAYLOAD,2022-02-11 13:46:50,15.21018807,0.0002986,53.2194,345.474,47.5844,312.5406,-0.0079975,-0.00175772,0.0,0 STARLINK-3247,1 49747U 21115Z   22042.57419932 -.00175772  00000-0 -79975-2 0  9991,2 49747  53.2194 345.4740 0002986  47.5844 312.5406 15.21018807 12132,6880.903,94.673,504.823,500.714,0.0
49747.0,STARLINK-3247,PAYLOAD,2022-02-11 21:40:24,15.20593494,0.0002856,53.2208,343.9652,40.0956,320.0251,-0.009246,-0.00199988,0.0,0 STARLINK-3247,1 49747U 21115Z   22042.90306443 -.00199988  00000-0 -92460-2 0  9999,2 49747  53.2208 343.9652 0002856  40.0956 320.0251 15.20593494 11074,6882.186,94.7,506.017,502.086,0.0
49747.0,STARLINK-3247,PAYLOAD,2022-02-11 22:00:01,15.19368145,0.000154,53.2174,343.8458,48.9568,28.1869,-0.033212,-0.00666424,0.0,0 STARLINK-3247,1 49747U 21115Z   22042.91668981 -.00666424  00000-0 -33212-1 0  9991,2 49747  53.2174 343.8458 0001540  48.9568  28.1869 15.19368145 12189,6885.886,94.776,508.811,506.691,0.0
49747.0,STARLINK-3247,PAYLOAD,2022-02-12 03:59:26,15.20109767,0.0001101,53.2201,342.7631,104.8886,255.2233,-0.00935,-0.00199378,0.0,0 STARLINK-3247,1 49747U 21115Z   22043.16628092 -.00199378  00000-0 -93500-2 0  9994,2 49747  53.2201 342.7631 0001101 104.8886 255.2233 15.20109767 12227,6883.646,94.73,506.269,504.753,0.0
49747.0,STARLINK-3247,PAYLOAD,2022-02-12 13:27:47,15.19777791,0.0001571,53.2206,340.9617,117.7761,242.3395,-0.0084651,-0.00179297,0.0,0 STARLINK-3247,1 49747U 21115Z   22043.56096499 -.00179297  00000-0 -84651-2 0  9993,2 49747  53.2206 340.9617 0001571 117.7761 242.3395 15.19777791 11177,6884.649,94.751,507.595,505.432,0.0
49747.0,STARLINK-3247,PAYLOAD,2022-02-12 22:00:00,15.17967732,0.0001676999999999,53.2174,339.2779,48.6019,98.6854,-0.0345339999999999,-0.00665415,0.0,0 STARLINK-3247,1 49747U 21115Z   22043.91667824 -.00665415  00000-0 -34534-1 0  9994,2 49747  53.2174 339.2779 0001677  48.6019  98.6854 15.17967732 12331,6890.12,94.864,513.141,510.83,0.0
49747.0,STARLINK-3247,PAYLOAD,2022-02-13 14:00:01,15.170337699999996,0.0001593,53.2174,336.2378,53.7463,137.5425,-0.035373,-0.00663575,0.0,0 STARLINK-3247,1 49747U 21115Z   22044.58334491 -.00663575  00000-0 -35373-1 0  9996,2 49747  53.2174 336.2378 0001593  53.7463 137.5425 15.17033770  3647,6892.948,94.922,515.911,513.715,0.0
49747.0,STARLINK-3247,PAYLOAD,2022-02-14 06:00:00,15.16097373,0.000156,53.2173,333.204,58.0892,174.9583,-0.036005,-0.00657893,0.0,0 STARLINK-3247,1 49747U 21115Z   22045.25001157 -.00657893  00000-0 -36005-1 0  9990,2 49747  53.2173 333.2040 0001560  58.0892 174.9583 15.16097373 12533,6895.786,94.981,518.727,516.575,0.0
49747.0,STARLINK-3247,PAYLOAD,2022-02-14 14:00:01,15.15633298,0.0001525,53.2174,331.6861,56.7168,196.3693,-0.036733,-0.0066206999999999,0.0,0 STARLINK-3247,1 49747U 21115Z   22045.58334491 -.00662070  00000-0 -36733-1 0  9997,2 49747  53.2174 331.6861 0001525  56.7168 196.3693 15.15633298  3642,6897.194,95.01,520.11,518.007,0.0
49747.0,STARLINK-3247,PAYLOAD,2022-02-14 20:00:01,15.15284444,0.0001812,53.2176,330.5497,45.036,132.7106,-0.037206,-0.00663866,0.0,0 STARLINK-3247,1 49747U 21115Z   22045.83334491 -.00663866  00000-0 -37206-1 0  9995,2 49747  53.2176 330.5497 0001812  45.0360 132.7106 15.15284444  3627,6898.252,95.032,521.367,518.867,0.0
49747.0,STARLINK-3247,PAYLOAD,2022-02-15 06:00:00,15.14587117,0.0001619,53.2174,328.6674,50.3148,241.216,-0.028143,-0.00496247,0.0,0 STARLINK-3247,1 49747U 21115Z   22046.25001157 -.00496247  00000-0 -28143-1 0  9999,2 49747  53.2174 328.6674 0001619  50.3148 241.2160 15.14587117 12693,6900.369000000002,95.075,523.351,521.117,0.0
49747.0,STARLINK-3247,PAYLOAD,2022-02-15 14:00:01,15.14152755,0.0001607,53.2178,327.1523,43.3327,266.5394,-0.031245,-0.00541317,0.0,0 STARLINK-3247,1 49747U 21115Z   22046.58334491 -.00541317  00000-0 -31245-1 0  9991,2 49747  53.2178 327.1523 0001607  43.3327 266.5394 15.14152755 12743,6901.689,95.103,524.663,522.445,0.0
49747.0,STARLINK-3247,PAYLOAD,2022-02-15 22:00:01,15.13768259,0.0001651,53.2175,325.633,45.0234,282.6723,-0.03887,-0.00664307,0.0,0 STARLINK-3247,1 49747U 21115Z   22046.91668981 -.00664307  00000-0 -38870-1 0  9998,2 49747  53.2175 325.6330 0001651  45.0234 282.6723 15.13768259 12795,6902.858,95.127,525.862,523.5830000000002,0.0
49747.0,STARLINK-3247,PAYLOAD,2022-02-16 14:00:01,15.12832777,0.000143,53.2174,322.612,51.5928,309.9509,-0.039669,-0.0066055,0.0,0 STARLINK-3247,1 49747U 21115Z   22047.58334491 -.00660550  00000-0 -39669-1 0  9991,2 49747  53.2174 322.6120 0001430  51.5928 309.9509 15.12832777  3639,6905.703,95.186,528.555,526.58,0.0
49747.0,STARLINK-3247,PAYLOAD,2022-02-16 22:00:00,15.12193936,0.0001274999999999,53.2183,321.1132,51.8785,325.8663,-0.025386,-0.00418607,0.0,0 STARLINK-3247,1 49747U 21115Z   22047.91667824 -.00418607  00000-0 -25386-1 0  9992,2 49747  53.2183 321.1132 0001275  51.8785 325.8663 15.12193936  3609,6907.648,95.226,530.393,528.632,0.0
49747.0,STARLINK-3247,PAYLOAD,2022-02-17 06:00:00,15.11836923,0.0001558,53.2177,319.6056,43.1219,350.1131,-0.034837,-0.00563962,0.0,0 STARLINK-3247,1 49747U 21115Z   22048.25001157 -.00563962  00000-0 -34837-1 0  9997,2 49747  53.2177 319.6056 0001558  43.1219 350.1131 15.11836923 12991,6908.735,95.248,531.677,529.524,0.0
